CCSDS_OMM_VERS = 2.0
CREATION_DATE  = 
ORIGINATOR     = 

OBJECT_NAME    = ALOS (DAICHI)
OBJECT_ID      = 2006-002A
CENTER_NAME    = EARTH
REF_FRAME      = TEME
TIME_SYSTEM    = UTC
MEAN_ELEMENT_THEORY = SGP/SGP4

EPOCH          = 2026-02-16T21:00:10.073376
MEAN_MOTION    = 14.69738562
ECCENTRICITY   = .0001784
INCLINATION    = 98.1184
RA_OF_ASC_NODE = 3.9409
ARG_OF_PERICENTER = 57.6157
MEAN_ANOMALY   = 302.5221

EPHEMERIS_TYPE = 0
CLASSIFICATION_TYPE = U
NORAD_CAT_ID   = 28931
ELEMENT_SET_NO = 999
REV_AT_EPOCH   = 7042
BSTAR          = .24026E-3
MEAN_MOTION_DOT = .1383E-4
MEAN_MOTION_DDOT = 0

CCSDS_OMM_VERS = 2.0
CREATION_DATE  = 
ORIGINATOR     = 

OBJECT_NAME    = H-2A R/B
OBJECT_ID      = 2006-002B
CENTER_NAME    = EARTH
REF_FRAME      = TEME
TIME_SYSTEM    = UTC
MEAN_ELEMENT_THEORY = SGP/SGP4

EPOCH          = 2026-02-16T08:35:50.648640
MEAN_MOTION    = 15.15968464
ECCENTRICITY   = .00523171
INCLINATION    = 98.2367
RA_OF_ASC_NODE = 192.5616
ARG_OF_PERICENTER = 314.6732
MEAN_ANOMALY   = 45.0240

EPHEMERIS_TYPE = 0
CLASSIFICATION_TYPE = U
NORAD_CAT_ID   = 28932
ELEMENT_SET_NO = 999
REV_AT_EPOCH   = 9120
BSTAR          = .48144215E-3
MEAN_MOTION_DOT = .9488E-4
MEAN_MOTION_DDOT = 0

CCSDS_OMM_VERS = 2.0
CREATION_DATE  = 
ORIGINATOR     = 

OBJECT_NAME    = RESURS-DK 1
OBJECT_ID      = 2006-021A
CENTER_NAME    = EARTH
REF_FRAME      = TEME
TIME_SYSTEM    = UTC
MEAN_ELEMENT_THEORY = SGP/SGP4

EPOCH          = 2026-02-16T20:06:16.498944
MEAN_MOTION    = 15.12620563
ECCENTRICITY   = .0003637
INCLINATION    = 69.9333
RA_OF_ASC_NODE = 290.9603
ARG_OF_PERICENTER = 191.4195
MEAN_ANOMALY   = 168.6889

EPHEMERIS_TYPE = 0
CLASSIFICATION_TYPE = U
NORAD_CAT_ID   = 29228
ELEMENT_SET_NO = 999
REV_AT_EPOCH   = 8437
BSTAR          = .15827E-3
MEAN_MOTION_DOT = .2664E-4
MEAN_MOTION_DDOT = 0

CCSDS_OMM_VERS = 2.0
CREATION_DATE  = 
ORIGINATOR     = 

OBJECT_NAME    = CZ-4B R/B
OBJECT_ID      = 2006-046C
CENTER_NAME    = EARTH
REF_FRAME      = TEME
TIME_SYSTEM    = UTC
MEAN_ELEMENT_THEORY = SGP/SGP4

EPOCH          = 2026-02-16T19:52:55.500960
MEAN_MOTION    = 15.16674813
ECCENTRICITY   = .0032849
INCLINATION    = 97.5635
RA_OF_ASC_NODE = 92.7920
ARG_OF_PERICENTER = 342.6295
MEAN_ANOMALY   = 17.3811

EPHEMERIS_TYPE = 0
CLASSIFICATION_TYPE = U
NORAD_CAT_ID   = 29507
ELEMENT_SET_NO = 999
REV_AT_EPOCH   = 5688
BSTAR          = .24396E-3
MEAN_MOTION_DOT = .4771E-4
MEAN_MOTION_DDOT = 0

CCSDS_OMM_VERS = 2.0
CREATION_DATE  = 
ORIGINATOR     = 

OBJECT_NAME    = CZ-2C R/B
OBJECT_ID      = 2007-010B
CENTER_NAME    = EARTH
REF_FRAME      = TEME
TIME_SYSTEM    = UTC
MEAN_ELEMENT_THEORY = SGP/SGP4

EPOCH          = 2026-02-16T20:56:34.743840
MEAN_MOTION    = 14.20238756
ECCENTRICITY   = .0058788
INCLINATION    = 98.3971
RA_OF_ASC_NODE = 162.1962
ARG_OF_PERICENTER = 355.9396
MEAN_ANOMALY   = 4.1297

EPHEMERIS_TYPE = 0
CLASSIFICATION_TYPE = U
NORAD_CAT_ID   = 31114
ELEMENT_SET_NO = 999
REV_AT_EPOCH   = 97676
BSTAR          = .75018E-4
MEAN_MOTION_DOT = .122E-5
MEAN_MOTION_DDOT = 0

CCSDS_OMM_VERS = 2.0
CREATION_DATE  = 
ORIGINATOR     = 

OBJECT_NAME    = COSMO-SKYMED 1
OBJECT_ID      = 2007-023A
CENTER_NAME    = EARTH
REF_FRAME      = TEME
TIME_SYSTEM    = UTC
MEAN_ELEMENT_THEORY = SGP/SGP4

EPOCH          = 2026-02-16T19:15:08.375328
MEAN_MOTION    = 14.96364386
ECCENTRICITY   = .0001345
INCLINATION    = 97.8855
RA_OF_ASC_NODE = 238.6693
ARG_OF_PERICENTER = 93.6387
MEAN_ANOMALY   = 266.4987

EPHEMERIS_TYPE = 0
CLASSIFICATION_TYPE = U
NORAD_CAT_ID   = 31598
ELEMENT_SET_NO = 999
REV_AT_EPOCH   = 1178
BSTAR          = .3615E-3
MEAN_MOTION_DOT = .4033E-4
MEAN_MOTION_DDOT = 0

CCSDS_OMM_VERS = 2.0
CREATION_DATE  = 
ORIGINATOR     = 

OBJECT_NAME    = COSMOS 2428
OBJECT_ID      = 2007-029A
CENTER_NAME    = EARTH
REF_FRAME      = TEME
TIME_SYSTEM    = UTC
MEAN_ELEMENT_THEORY = SGP/SGP4

EPOCH          = 2026-02-16T19:00:05.458176
MEAN_MOTION    = 14.12938104
ECCENTRICITY   = .0007949
INCLINATION    = 70.9401
RA_OF_ASC_NODE = 247.2109
ARG_OF_PERICENTER = 301.2161
MEAN_ANOMALY   = 58.8181

EPHEMERIS_TYPE = 0
CLASSIFICATION_TYPE = U
NORAD_CAT_ID   = 31792
ELEMENT_SET_NO = 999
REV_AT_EPOCH   = 96114
BSTAR          = .15473E-3
MEAN_MOTION_DOT = .24E-5
MEAN_MOTION_DDOT = 0

CCSDS_OMM_VERS = 2.0
CREATION_DATE  = 
ORIGINATOR     = 

OBJECT_NAME    = SL-16 R/B
OBJECT_ID      = 2007-029B
CENTER_NAME    = EARTH
REF_FRAME      = TEME
TIME_SYSTEM    = UTC
MEAN_ELEMENT_THEORY = SGP/SGP4

EPOCH          = 2026-02-16T18:50:08.011680
MEAN_MOTION    = 14.14836291
ECCENTRICITY   = .0002296
INCLINATION    = 70.9744
RA_OF_ASC_NODE = 216.3257
ARG_OF_PERICENTER = 282.5985
MEAN_ANOMALY   = 174.8019

EPHEMERIS_TYPE = 0
CLASSIFICATION_TYPE = U
NORAD_CAT_ID   = 31793
ELEMENT_SET_NO = 999
REV_AT_EPOCH   = 96241
BSTAR          = .43764E-4
MEAN_MOTION_DOT = .37E-6
MEAN_MOTION_DDOT = 0

CCSDS_OMM_VERS = 2.0
CREATION_DATE  = 
ORIGINATOR     = 

OBJECT_NAME    = KORONAS-FOTON
OBJECT_ID      = 2009-003A
CENTER_NAME    = EARTH
REF_FRAME      = TEME
TIME_SYSTEM    = UTC
MEAN_ELEMENT_THEORY = SGP/SGP4

EPOCH          = 2026-02-16T19:37:49.010304
MEAN_MOTION    = 15.42766173
ECCENTRICITY   = .0009391
INCLINATION    = 82.4313
RA_OF_ASC_NODE = 297.5676
ARG_OF_PERICENTER = 225.9814
MEAN_ANOMALY   = 134.0660

EPHEMERIS_TYPE = 0
CLASSIFICATION_TYPE = U
NORAD_CAT_ID   = 33504
ELEMENT_SET_NO = 999
REV_AT_EPOCH   = 94252
BSTAR          = .28275E-3
MEAN_MOTION_DOT = .12419E-3
MEAN_MOTION_DDOT = 0

CCSDS_OMM_VERS = 2.0
CREATION_DATE  = 
ORIGINATOR     = 

OBJECT_NAME    = CZ-2C R/B
OBJECT_ID      = 2011-030B
CENTER_NAME    = EARTH
REF_FRAME      = TEME
TIME_SYSTEM    = UTC
MEAN_ELEMENT_THEORY = SGP/SGP4

EPOCH          = 2026-02-16T19:18:34.396128
MEAN_MOTION    = 14.81136867
ECCENTRICITY   = .0054048
INCLINATION    = 97.8510
RA_OF_ASC_NODE = 5.4930
ARG_OF_PERICENTER = 59.1263
MEAN_ANOMALY   = 0.0617

EPHEMERIS_TYPE = 0
CLASSIFICATION_TYPE = U
NORAD_CAT_ID   = 37731
ELEMENT_SET_NO = 999
REV_AT_EPOCH   = 78700
BSTAR          = .2042E-3
MEAN_MOTION_DOT = .1573E-4
MEAN_MOTION_DDOT = 0

CCSDS_OMM_VERS = 2.0
CREATION_DATE  = 
ORIGINATOR     = 

OBJECT_NAME    = H-2A R/B
OBJECT_ID      = 2012-025E
CENTER_NAME    = EARTH
REF_FRAME      = TEME
TIME_SYSTEM    = UTC
MEAN_ELEMENT_THEORY = SGP/SGP4

EPOCH          = 2026-02-16T18:43:49.698912
MEAN_MOTION    = 14.94978019
ECCENTRICITY   = .0045353
INCLINATION    = 98.4694
RA_OF_ASC_NODE = 13.1622
ARG_OF_PERICENTER = 23.2753
MEAN_ANOMALY   = 337.0506

EPHEMERIS_TYPE = 0
CLASSIFICATION_TYPE = U
NORAD_CAT_ID   = 38341
ELEMENT_SET_NO = 999
REV_AT_EPOCH   = 74509
BSTAR          = .41773E-3
MEAN_MOTION_DOT = .459E-4
MEAN_MOTION_DDOT = 0

CCSDS_OMM_VERS = 2.0
CREATION_DATE  = 
ORIGINATOR     = 

OBJECT_NAME    = SHIJIAN-16 (SJ-16)
OBJECT_ID      = 2013-057A
CENTER_NAME    = EARTH
REF_FRAME      = TEME
TIME_SYSTEM    = UTC
MEAN_ELEMENT_THEORY = SGP/SGP4

EPOCH          = 2026-02-16T20:18:35.156736
MEAN_MOTION    = 14.92260201
ECCENTRICITY   = .0016455
INCLINATION    = 74.9699
RA_OF_ASC_NODE = 224.5439
ARG_OF_PERICENTER = 165.1215
MEAN_ANOMALY   = 195.0461

EPHEMERIS_TYPE = 0
CLASSIFICATION_TYPE = U
NORAD_CAT_ID   = 39358
ELEMENT_SET_NO = 999
REV_AT_EPOCH   = 66839
BSTAR          = .14853E-3
MEAN_MOTION_DOT = .149E-4
MEAN_MOTION_DDOT = 0

