ALOS (DAICHI)           
1 28931U 06002A   26047.87511659  .00001383  00000+0  24026-3 0  9993
2 28931  98.1184   3.9409 0001784  57.6157 302.5221 14.69738562 70421
H-2A R/B                
1 28932U 06002B   26047.35822510  .00009488  00000+0  48144-3 0  9999
2 28932  98.2367 192.5616 0052317 314.6732  45.0240 15.15968464 91201
RESURS-DK 1             
1 29228U 06021A   26047.83769096  .00002664  00000+0  15827-3 0  9992
2 29228  69.9333 290.9603 0003637 191.4195 168.6889 15.12620563 84375
CZ-4B R/B               
1 29507U 06046C   26047.82842015  .00004771  00000+0  24396-3 0  9993
2 29507  97.5635  92.7920 0032849 342.6295  17.3811 15.16674813 56886
CZ-2C R/B               
1 31114U 07010B   26047.87262435  .00000122  00000+0  75018-4 0  9993
2 31114  98.3971 162.1962 0058788 355.9396   4.1297 14.20238756976768
COSMO-SKYMED 1          
1 31598U 07023A   26047.80218027  .00004033  00000+0  36150-3 0  9992
2 31598  97.8855 238.6693 0001345  93.6387 266.4987 14.96364386 11785
COSMOS 2428             
1 31792U 07029A   26047.79172984  .00000240  00000+0  15473-3 0  9994
2 31792  70.9401 247.2109 0007949 301.2161  58.8181 14.12938104961148
SL-16 R/B               
1 31793U 07029B   26047.78481495  .00000037  00000+0  43764-4 0  9993
2 31793  70.9744 216.3257 0002296 282.5985 174.8019 14.14836291962411
KORONAS-FOTON           
1 33504U 09003A   26047.81792836  .00012419  00000+0  28275-3 0  9993
2 33504  82.4313 297.5676 0009391 225.9814 134.0660 15.42766173942527
CZ-2C R/B               
1 37731U 11030B   26047.80456477  .00001573  00000+0  20420-3 0  9992
2 37731  97.8510   5.4930 0054048  59.1263   0.0617 14.81136867787002
H-2A R/B                
1 38341U 12025E   26047.78043633  .00004590  00000+0  41773-3 0  9994
2 38341  98.4694  13.1622 0045353  23.2753 337.0506 14.94978019745099
SHIJIAN-16 (SJ-16)      
1 39358U 13057A   26047.84624024  .00001490  00000+0  14853-3 0  9990
2 39358  74.9699 224.5439 0016455 165.1215 195.0461 14.92260201668390
